H1 CPF 01  gfz 2021 02 02 01  5331 terrasarx 
H2 0702601  6201 31698    2021 02 02 00 59 42 2021 02 07 00 00 42   120 1 1  0 0 0
H9
10 0 59249  12942.000000  0   -2631040.805   -917815.646   6289221.711
10 0 59249  13062.000000  0   -1962151.102   -357473.712   6582776.632
10 0 59249  13182.000000  0   -1249267.479    197014.852   6760646.140
10 0 59249  13302.000000  0    -505025.971    735315.494   6819726.934
10 0 59249  13422.000000  0     257219.646   1247605.132   6758989.581
10 0 59249  13542.000000  0    1023636.770   1724751.083   6579495.559
10 0 59249  13662.000000  0    1780164.413   2158474.129   6284379.410
10 0 59249  13782.000000  0    2512770.171   2541492.109   5878797.169
10 0 59249  13902.000000  0    3207711.004   2867643.652   5369842.717
10 0 59249  14022.000000  0    3851794.361   3131989.938   4766429.777
10 0 59249  14142.000000  0    4432631.668   3330891.816   4079140.495
10 0 59249  14262.000000  0    4938882.349   3462060.950   3320046.331
10 0 59249  14382.000000  0    5360484.798   3524584.717   2502496.550
10 0 59249  14502.000000  0    5688861.984   3518920.600   1640881.339
10 0 59249  14622.000000  0    5917101.455   3446863.776    750374.469
10 0 59249  14742.000000  0    6040103.787   3311486.430   -153341.658
10 0 59249  14862.000000  0    6054694.486   3117049.818  -1054361.019
10 0 59249  14982.000000  0    5959697.501   2868891.879  -1936842.490
10 0 59249  15102.000000  0    5755967.641   2573294.790  -2785295.297
10 0 59249  15222.000000  0    5446383.027   2237335.033  -3584856.436
10 0 59249  15342.000000  0    5035797.874   1868719.123  -4321553.493
10 0 59249  15462.000000  0    4530955.753   1475609.710  -4982548.506
10 0 59249  15582.000000  0    3940367.015   1066447.230  -5556355.138
10 0 59249  15702.000000  0    3274156.274    649771.848  -6033029.526
10 0 59249  15822.000000  0    2543881.028    234048.502  -6404332.449
10 0 59249  15942.000000  0    1762326.635   -172500.950  -6663859.740
10 0 59249  16062.000000  0     943282.855   -562055.902  -6807142.465
10 0 59249  16182.000000  0     101302.345   -927343.585  -6831716.628
10 0 59249  16302.000000  0    -748553.261  -1261770.670  -6737159.144
10 0 59249  16422.000000  0   -1590975.636  -1559538.826  -6525094.718
10 0 59249  16542.000000  0   -2410679.619  -1815743.451  -6199171.333
10 0 59249  16662.000000  0   -3192674.365  -2026453.250  -5765003.249
10 0 59249  16782.000000  0   -3922533.255  -2188770.731  -5230085.426
10 0 59249  16902.000000  0   -4586661.411  -2300872.600  -4603676.182
10 0 59249  17022.000000  0   -5172552.793  -2362028.116  -3896647.717
10 0 59249  17142.000000  0   -5669032.747  -2372595.508  -3121307.327
10 0 59249  17262.000000  0   -6066480.894  -2333995.609  -2291189.685
10 0 59249  17382.000000  0   -6357027.988  -2248662.968  -1420823.760
10 0 59249  17502.000000  0   -6534722.285  -2119975.405   -525477.951
10 0 59249  17622.000000  0   -6595659.883  -1952163.159    379111.997
10 0 59249  17742.000000  0   -6538075.682  -1750199.481   1277026.693
10 0 59249  17862.000000  0   -6362391.247  -1519675.326   2152452.471
10 0 59249  17982.000000  0   -6071217.643  -1266662.029   2989969.156
10 0 59249  18102.000000  0   -5669314.662   -997564.809   3774829.429
10 0 59249  18222.000000  0   -5163506.239   -718970.741   4493225.575
10 0 59249  18342.000000  0   -4562553.795   -437495.947   5132533.984
10 0 59249  18462.000000  0   -3876995.855   -159635.695   5681535.420
10 0 59249  18582.000000  0   -3118954.507    108379.864   6130609.770
10 0 59249  18702.000000  0   -2301912.306    360720.700   6471899.527
10 0 59249  18822.000000  0   -1440466.407    592078.913   6699441.204
10 0 59249  18942.000000  0    -550063.920    797777.119   6809263.553
10 0 59249  19062.000000  0     353275.827    973861.004   6799451.636
10 0 59249  19182.000000  0    1253248.509   1117174.324   6670177.830
10 0 59249  19302.000000  0    2133557.978   1225415.789   6423699.113
10 0 59249  19422.000000  0    2978210.423   1297176.077   6064320.270
10 0 59249  19542.000000  0    3771806.343   1331954.799   5598324.022
10 0 59249  19662.000000  0    4499824.169   1330157.050   5033865.948
10 0 59249  19782.000000  0    5148890.219   1293070.129   4380839.098
10 0 59249  19902.000000  0    5707034.020   1222820.481   3650706.768
10 0 59249  20022.000000  0    6163919.186   1122311.907   2856302.281
10 0 59249  20142.000000  0    6511043.492    995144.809   2011603.077
10 0 59249  20262.000000  0    6741906.834    845520.135   1131482.321
10 0 59249  20382.000000  0    6852139.929    678129.245    231440.466
10 0 59249  20502.000000  0    6839591.478    498032.525   -672675.333
10 0 59249  20622.000000  0    6704369.946    310529.889  -1564960.109
10 0 59249  20742.000000  0    6448838.816    121026.730  -2429739.108
10 0 59249  20862.000000  0    6077567.575    -65101.792  -3251849.181
10 0 59249  20982.000000  0    5597239.688   -242643.925  -4016908.564
10 0 59249  21102.000000  0    5016519.344   -406678.757  -4711569.073
10 0 59249  21222.000000  0    4345881.646   -552694.245  -5323744.423
10 0 59249  21342.000000  0    3597413.246   -676694.052  -5842812.818
10 0 59249  21462.000000  0    2784586.201   -775291.795  -6259792.307
10 0 59249  21582.000000  0    1922009.515   -845789.317  -6567484.927
10 0 59249  21702.000000  0    1025165.662   -886238.253  -6760589.147
10 0 59249  21822.000000  0     110135.351   -895485.186  -6835782.481
10 0 59249  21942.000000  0    -806686.115   -873197.776  -6791771.915
10 0 59249  22062.000000  0   -1708875.339   -819873.159  -6629313.803
10 0 59249  22182.000000  0   -2580268.874   -736827.538  -6351202.140
10 0 59249  22302.000000  0   -3405245.920   -626167.732  -5962224.377
10 0 59249  22422.000000  0   -4169003.800   -490744.999  -5469089.196
10 0 59249  22542.000000  0   -4857824.757   -334091.353  -4880321.862
10 0 59249  22662.000000  0   -5459325.705   -160339.752  -4206128.074
10 0 59249  22782.000000  0   -5962689.262     25870.540  -3458228.736
10 0 59249  22902.000000  0   -6358869.785    219502.641  -2649663.995
10 0 59249  23022.000000  0   -6640768.882    415241.893  -1794571.107
10 0 59249  23142.000000  0   -6803376.098    607625.020   -907938.369
10 0 59249  23262.000000  0   -6843870.554    791174.109     -5338.080
10 0 59249  23382.000000  0   -6761676.615    960533.121    897353.858
10 0 59249  23502.000000  0   -6558476.562   1110603.177   1784244.008
10 0 59249  23622.000000  0   -6238178.518   1236673.152   2639710.477
10 0 59249  23742.000000  0   -5806838.385   1334541.861   3448687.371
10 0 59249  23862.000000  0   -5272538.034   1400628.617   4196937.220
10 0 59249  23982.000000  0   -4645224.350   1432069.644   4871304.926
10 0 59249  24102.000000  0   -3936514.251   1426797.882   5459949.167
10 0 59249  24222.000000  0   -3159470.909   1383604.747   5952548.051
10 0 59249  24342.000000  0   -2328355.328   1302182.540   6340476.977
10 0 59249  24462.000000  0   -1458357.077   1183147.109   6616954.573
10 0 59249  24582.000000  0    -565311.961   1028039.386   6777153.749
10 0 59249  24702.000000  0     334586.904    839306.784   6818279.773
10 0 59249  24822.000000  0    1225081.715    620264.351   6739615.649
10 0 59249  24942.000000  0    2090142.301    375036.846   6542533.823
10 0 59249  25062.000000  0    2914253.541    108482.090   6230474.425
10 0 59249  25182.000000  0    3682694.831   -173903.546   5808890.045
10 0 59249  25302.000000  0    4381805.956   -466095.920   5285155.465
10 0 59249  25422.000000  0    4999234.788   -761668.108   4668444.908
10 0 59249  25542.000000  0    5524163.029  -1053927.465   3969576.872
10 0 59249  25662.000000  0    5947504.860  -1336062.423   3200828.422
10 0 59249  25782.000000  0    6262074.254  -1601295.365   2375720.248
10 0 59249  25902.000000  0    6462715.927  -1843037.945   1508776.946
10 0 59249  26022.000000  0    6546396.887  -2055045.259    615266.825
10 0 59249  26142.000000  0    6512255.836  -2231565.906   -289074.412
10 0 59249  26262.000000  0    6361608.063  -2367481.996  -1188330.099
10 0 59249  26382.000000  0    6097906.396  -2458436.970  -2066691.720
10 0 59249  26502.000000  0    5726658.622  -2500947.457  -2908744.585
10 0 59249  26622.000000  0    5255304.792  -2492495.867  -3699742.913
10 0 59249  26742.000000  0    4693059.072  -2431602.752  -4425869.101
10 0 59249  26862.000000  0    4050719.847  -2317877.400  -5074473.622
10 0 59249  26982.000000  0    3340451.667  -2152045.358  -5634289.769
10 0 59249  27102.000000  0    2575547.148  -1935952.642  -6095619.082
10 0 59249  27222.000000  0    1770175.454  -1672547.583  -6450489.036
10 0 59249  27342.000000  0     939118.057  -1365840.067  -6692781.051
10 0 59249  27462.000000  0      97498.972  -1020839.735  -6818324.864
10 0 59249  27582.000000  0    -739485.733   -643474.693  -6824962.161
10 0 59249  27702.000000  0   -1556835.755   -240491.698  -6712579.502
10 0 59249  27822.000000  0   -2340009.583    180661.830  -6483109.652
10 0 59249  27942.000000  0   -3075177.027    611971.453  -6140501.097
10 0 59249  28062.000000  0   -3749458.949   1045003.611  -5690658.086
10 0 59249  28182.000000  0   -4351153.077   1471065.748  -5141349.686
10 0 59249  28302.000000  0   -4869940.654   1881376.762  -4502087.594
10 0 59249  28422.000000  0   -5297070.575   2267245.951  -3783972.221
10 0 59249  28542.000000  0   -5625515.471   2620254.245  -2999508.795
10 0 59249  28662.000000  0   -5850098.046   2932435.423  -2162396.618
10 0 59249  28782.000000  0   -5967583.749   3196453.313  -1287292.759
10 0 59249  28902.000000  0   -5976735.736   3405770.634   -389554.071
10 0 59249  29022.000000  0   -5878330.618   3554804.453    515037.117
10 0 59249  29142.000000  0   -5675133.463   3639063.545   1410559.185
10 0 59249  29262.000000  0   -5371830.735   3655264.384   2281240.581
10 0 59249  29382.000000  0   -4974924.883   3601422.673   3111745.965
99
